$$SOE
2460154.500000000, A.D. 2023-Jul-29 00:00:00.0000, 2.653758009575035E+08, 4.043723109707078E+08, -2.401817678879926E+07,
2460161.500000000, A.D. 2023-Aug-05 00:00:00.0000, 2.571486973271795E+08, 4.093860562934613E+08, -2.650844506728972E+07,
2460168.500000000, A.D. 2023-Aug-12 00:00:00.0000, 2.488118683144453E+08, 4.142246697840653E+08, -2.898736416592045E+07,
2460175.500000000, A.D. 2023-Aug-19 00:00:00.0000, 2.403688053935350E+08, 4.188859738300814E+08, -3.145386430250518E+07,
2460182.500000000, A.D. 2023-Aug-26 00:00:00.0000, 2.318230486956513E+08, 4.233678610069779E+08, -3.390687967179781E+07,
2460189.500000000, A.D. 2023-Sep-02 00:00:00.0000, 2.231781857363873E+08, 4.276682950638024E+08, -3.634534885681280E+07,
2460196.500000000, A.D. 2023-Sep-09 00:00:00.0000, 2.144378501349019E+08, 4.317853117781550E+08, -3.876821525180700E+07,
2460203.500000000, A.D. 2023-Sep-16 00:00:00.0000, 2.056057204932979E+08, 4.357170196225208E+08, -4.117442751705414E+07,
2460210.500000000, A.D. 2023-Sep-23 00:00:00.0000, 1.966855198529661E+08, 4.394616005292345E+08, -4.356294008022709E+07,
2460217.500000000, A.D. 2023-Sep-30 00:00:00.0000, 1.876810153895088E+08, 4.430173119449089E+08, -4.593271355613439E+07,
2460224.500000000, A.D. 2023-Oct-07 00:00:00.0000, 1.785960159930348E+08, 4.463824896293785E+08, -4.828271491307738E+07,
2460231.500000000, A.D. 2023-Oct-14 00:00:00.0000, 1.694343687724756E+08, 4.495555478847695E+08, -5.061191775139391E+07,
2460238.500000000, A.D. 2023-Oct-21 00:00:00.0000, 1.601999577133357E+08, 4.525349788184833E+08, -5.291930285942000E+07,
2460245.500000000, A.D. 2023-Oct-28 00:00:00.0000, 1.508967030658254E+08, 4.553193528984575E+08, -5.520385873129688E+07,
2460252.500000000, A.D. 2023-Nov-04 00:00:00.0000, 1.415285602124436E+08, 4.579073200276563E+08, -5.746458199404760E+07,
2460259.500000000, A.D. 2023-Nov-11 00:00:00.0000, 1.320995181911188E+08, 4.602976105370106E+08, -5.970047780842574E+07,
2460266.500000000, A.D. 2023-Nov-18 00:00:00.0000, 1.226135980926467E+08, 4.624890360330369E+08, -6.191056026848921E+07,
2460273.500000000, A.D. 2023-Nov-25 00:00:00.0000, 1.130748514055278E+08, 4.644804901236782E+08, -6.409385280463329E+07,
2460280.500000000, A.D. 2023-Dec-02 00:00:00.0000, 1.034873583374129E+08, 4.662709490116232E+08, -6.624938859360415E+07,
2460287.500000000, A.D. 2023-Dec-09 00:00:00.0000, 9.385522619208245E+07, 4.678594718957332E+08, -6.837621098737410E+07,
2460294.500000000, A.D. 2023-Dec-16 00:00:00.0000, 8.418258809010680E+07, 4.692452011920993E+08, -7.047337398601532E+07,
2460301.500000000, A.D. 2023-Dec-23 00:00:00.0000, 7.447360238183096E+07, 4.704273632614130E+08, -7.253994273024322E+07,
2460308.500000000, A.D. 2023-Dec-30 00:00:00.0000, 6.473245141310191E+07, 4.714052706910492E+08, -7.457499380499086E+07,
2460315.500000000, A.D. 2024-Jan-06 00:00:00.0000, 5.496333787132007E+07, 4.721783237683913E+08, -7.657761538375856E+07,
2460322.500000000, A.D. 2024-Jan-13 00:00:00.0000, 4.517048188253651E+07, 4.727460093374962E+08, -7.854690765195332E+07,
2460329.500000000, A.D. 2024-Jan-20 00:00:00.0000, 3.535812008311570E+07, 4.731079001257999E+08, -8.048198337023415E+07,
2460336.500000000, A.D. 2024-Jan-27 00:00:00.0000, 2.553050463871639E+07, 4.732636551930713E+08, -8.238196833900793E+07,
2460343.500000000, A.D. 2024-Feb-03 00:00:00.0000, 1.569190178285036E+07, 4.732130205528371E+08, -8.424600180227672E+07,
2460350.500000000, A.D. 2024-Feb-10 00:00:00.0000, 5.846590152744064E+06, 4.729558296743712E+08, -8.607323684005894E+07,
2460357.500000000, A.D. 2024-Feb-17 00:00:00.0000, -4.001140938329386E+06, 4.724920038725159E+08, -8.786284076145358E+07,
2460364.500000000, A.D. 2024-Feb-24 00:00:00.0000, -1.384699325581256E+07, 4.718215525993858E+08, -8.961399550036585E+07,
2460371.500000000, A.D. 2024-Mar-02 00:00:00.0000, -2.368666139590730E+07, 4.709445736046126E+08, -9.132589801908386E+07,
2460378.500000000, A.D. 2024-Mar-09 00:00:00.0000, -3.351583439572398E+07, 4.698612529004195E+08, -9.299776073735903E+07,
2460385.500000000, A.D. 2024-Mar-16 00:00:00.0000, -4.333019680604341E+07, 4.685718647281157E+08, -9.462881200692837E+07,
2460392.500000000, A.D. 2024-Mar-23 00:00:00.0000, -5.312542933003498E+07, 4.670767726350554E+08, -9.621829653143665E+07,
2460399.500000000, A.D. 2024-Mar-30 00:00:00.0000, -6.289721126772024E+07, 4.653764316351070E+08, -9.776547552849971E+07,
2460406.500000000, A.D. 2024-Apr-06 00:00:00.0000, -7.264122450884910E+07, 4.634713880824311E+08, -9.926962693156144E+07,
2460413.500000000, A.D. 2024-Apr-13 00:00:00.0000, -8.235315552418958E+07, 4.613622780935682E+08, -1.007300458881815E+08,
2460420.500000000, A.D. 2024-Apr-20 00:00:00.0000, -9.202869630735730E+07, 4.590498271957849E+08, -1.021460452492725E+08,
2460427.500000000, A.D. 2024-Apr-27 00:00:00.0000, -1.016635457827362E+08, 4.565348506400309E+08, -1.035169559559788E+08,
2460434.500000000, A.D. 2024-May-04 00:00:00.0000, -1.112534115907385E+08, 4.538182536740161E+08, -1.048421273891957E+08,
2460441.500000000, A.D. 2024-May-11 00:00:00.0000, -1.207940120116062E+08, 4.509010316729625E+08, -1.061209277114702E+08,
2460448.500000000, A.D. 2024-May-18 00:00:00.0000, -1.302810779452911E+08, 4.477842701493852E+08, -1.073527442067010E+08,
2460455.500000000, A.D. 2024-May-25 00:00:00.0000, -1.397103549221252E+08, 4.444691446346837E+08, -1.085369836201788E+08,
2460462.500000000, A.D. 2024-Jun-01 00:00:00.0000, -1.490776050837540E+08, 4.409569203750798E+08, -1.096730725088370E+08,
2460469.500000000, A.D. 2024-Jun-08 00:00:00.0000, -1.583786088871569E+08, 4.372489518189030E+08, -1.107604576258413E+08,
2460476.500000000, A.D. 2024-Jun-15 00:00:00.0000, -1.676091661313674E+08, 4.333466824402997E+08, -1.117986063312880E+08,
2460483.500000000, A.D. 2024-Jun-22 00:00:00.0000, -1.767650973110037E+08, 4.292516460749444E+08, -1.127870068406475E+08,
2460490.500000000, A.D. 2024-Jun-29 00:00:00.0000, -1.858422474156053E+08, 4.249654679468639E+08, -1.137251682645929E+08,
2460497.500000000, A.D. 2024-Jul-06 00:00:00.0000, -1.948364895270375E+08, 4.204898629121884E+08, -1.146126208825155E+08,
2460504.500000000, A.D. 2024-Jul-13 00:00:00.0000, -2.037437262662432E+08, 4.158266337413075E+08, -1.154489165961385E+08,
2460511.500000000, A.D. 2024-Jul-20 00:00:00.0000, -2.125598910757796E+08, 4.109776705883648E+08, -1.162336292873652E+08,
2460518.500000000, A.D. 2024-Jul-27 00:00:00.0000, -2.212809499937522E+08, 4.059449506888676E+08, -1.169663550987654E+08,
2460525.500000000, A.D. 2024-Aug-03 00:00:00.0000, -2.299029036457341E+08, 4.007305379106855E+08, -1.176467126926142E+08,
2460532.500000000, A.D. 2024-Aug-10 00:00:00.0000, -2.384217892880728E+08, 3.953365821546406E+08, -1.182743435045097E+08,
2460539.500000000, A.D. 2024-Aug-17 00:00:00.0000, -2.468336828538865E+08, 3.897653186270707E+08, -1.188489119944662E+08,
2460546.500000000, A.D. 2024-Aug-24 00:00:00.0000, -2.551347009722677E+08, 3.840190669624312E+08, -1.193701058999121E+08,
2460553.500000000, A.D. 2024-Aug-31 00:00:00.0000, -2.633210028434110E+08, 3.781002301344030E+08, -1.198376365060445E+08,
2460560.500000000, A.D. 2024-Sep-07 00:00:00.0000, -2.713887916026790E+08, 3.720112932815456E+08, -1.202512389564389E+08,
2460567.500000000, A.D. 2024-Sep-14 00:00:00.0000, -2.793343150873457E+08, 3.657548234430121E+08, -1.206106725301592E+08,
2460574.500000000, A.D. 2024-Sep-21 00:00:00.0000, -2.871538680342411E+08, 3.593334706173630E+08, -1.209157206659287E+08,
2460581.500000000, A.D. 2024-Sep-28 00:00:00.0000, -2.948437961937847E+08, 3.527499669176276E+08, -1.211661909525155E+08,
2460588.500000000, A.D. 2024-Oct-05 00:00:00.0000, -3.024004986879513E+08, 3.460071238228660E+08, -1.213619154204434E+08,
2460595.500000000, A.D. 2024-Oct-12 00:00:00.0000, -3.098204289725146E+08, 3.391078305050924E+08, -1.215027508579128E+08,
2460602.500000000, A.D. 2024-Oct-19 00:00:00.0000, -3.171000961542189E+08, 3.320550529617067E+08, -1.215885790130766E+08,
2460609.500000000, A.D. 2024-Oct-26 00:00:00.0000, -3.242360666935415E+08, 3.248518331528219E+08, -1.216193067451539E+08,
2460616.500000000, A.D. 2024-Nov-02 00:00:00.0000, -3.312249662338544E+08, 3.175012879952366E+08, -1.215948661596413E+08,
2460623.500000000, A.D. 2024-Nov-09 00:00:00.0000, -3.380634814587603E+08, 3.100066082338814E+08, -1.215152147343647E+08,
2460630.500000000, A.D. 2024-Nov-16 00:00:00.0000, -3.447483619501374E+08, 3.023710571912904E+08, -1.213803354383757E+08,
2460637.500000000, A.D. 2024-Nov-23 00:00:00.0000, -3.512764219983754E+08, 2.945979693455781E+08, -1.211902368517331E+08,
2460644.500000000, A.D. 2024-Nov-30 00:00:00.0000, -3.576445421548679E+08, 2.866907486946390E+08, -1.209449533083788E+08,
2460651.500000000, A.D. 2024-Dec-07 00:00:00.0000, -3.638496701057004E+08, 2.786528673274146E+08, -1.206445450657578E+08,
2460658.500000000, A.D. 2024-Dec-14 00:00:00.0000, -3.698888215539979E+08, 2.704878654263642E+08, -1.202890983377263E+08,
2460665.500000000, A.D. 2024-Dec-21 00:00:00.0000, -3.757590834289575E+08, 2.621993514613723E+08, -1.198787250798138E+08,
2460672.500000000, A.D. 2024-Dec-28 00:00:00.0000, -3.814576174471500E+08, 2.537909996094021E+08, -1.194135629501260E+08,
2460679.500000000, A.D. 2025-Jan-04 00:00:00.0000, -3.869816614257751E+08, 2.452665467757513E+08, -1.188937754884536E+08,
2460686.500000000, A.D. 2025-Jan-11 00:00:00.0000, -3.923285301682522E+08, 2.366297908759882E+08, -1.183195522103513E+08,
2460693.500000000, A.D. 2025-Jan-18 00:00:00.0000, -3.974956168387967E+08, 2.278845894608395E+08, -1.176911086076079E+08,
2460700.500000000, A.D. 2025-Jan-25 00:00:00.0000, -4.024803945811188E+08, 2.190348582108954E+08, -1.170086861162044E+08,
2460707.500000000, A.D. 2025-Feb-01 00:00:00.0000, -4.072804181900259E+08, 2.100845692719963E+08, -1.162725520712259E+08,
2460714.500000000, A.D. 2025-Feb-08 00:00:00.0000, -4.118933257759010E+08, 2.010377494519004E+08, -1.154829996521193E+08,
2460721.500000000, A.D. 2025-Feb-15 00:00:00.0000, -4.163168403915874E+08, 1.918984782593501E+08, -1.146403478222543E+08,
$$EOE